ALOS (DAICHI)           
1 28931U 06002A   25344.85694687  .00002429  00000+0  41819-3 0  9994
2 28931  98.1091 296.3575 0001052 114.5858 245.5458 14.69478640 60435
H-2A R/B                
1 28932U 06002B   25344.34084023  .00016099  00000+0  84576-3 0  9991
2 28932  98.2316 118.8933 0054520 184.5657 175.5083 15.14489465 80903
RESURS-DK 1             
1 29228U 06021A   25344.77973619  .00004317  00000+0  25581-3 0  9997
2 29228  69.9334 106.9034 0007430 261.2716  98.7608 15.12143770 74089
CZ-4B R/B               
1 29507U 06046C   25344.85479074  .00008014  00000+0  41688-3 0  9993
2 29507  97.5736  24.9978 0033133 213.1642 146.7514 15.15840453 46580
CZ-2C R/B               
1 31114U 07010B   25344.60512706  .00000302  00000+0  15777-3 0  9997
2 31114  98.3974  97.3635 0058857 192.2115 167.7640 14.20208749967076
COSMO-SKYMED 1          
1 31598U 07023A   25344.98195878  .00005709  00000+0  51751-3 0  9993
2 31598  97.8835 170.3697 0001080  85.9013 274.2331 14.95741640  1640
COSMOS 2428             
1 31792U 07029A   25344.82682699  .00000106  00000+0  82794-4 0  9998
2 31792  70.9369  29.8964 0003562  26.2590 333.8711 14.12889071951547
SL-16 R/B               
1 31793U 07029B   25344.78518132 -.00000122  00000+0 -38251-4 0  9993
2 31793  70.9758 359.2668 0002240 263.1342 270.3177 14.14814772952797
KORONAS-FOTON           
1 33504U 09003A   25344.80657954  .00018723  00000+0  44978-3 0  9994
2 33504  82.4316   8.1087 0013137 114.5004 245.7614 15.41117062932040
CZ-2C R/B               
1 37731U 11030B   25344.70009242  .00002761  00000+0  35626-3 0  9998
2 37731  97.8411 298.8517 0051394 280.4646 131.3767 14.80891761776929
H-2A R/B                
1 38341U 12025E   25344.89888040  .00005730  00000+0  52794-3 0  9996
2 38341  98.4598 299.9870 0043617 242.2896 117.3894 14.94431265734952
SHIJIAN-16 (SJ-16)      
1 39358U 13057A   25344.99297483  .00002548  00000+0  25357-3 0  9996
2 39358  74.9731 352.9601 0017597 323.8626  36.1371 14.91979710658273
